OBJECT_NAME,OBJECT_ID,EPOCH,MEAN_MOTION,ECCENTRICITY,INCLINATION,RA_OF_ASC_NODE,ARG_OF_PERICENTER,MEAN_ANOMALY,EPHEMERIS_TYPE,CLASSIFICATION_TYPE,NORAD_CAT_ID,ELEMENT_SET_NO,REV_AT_EPOCH,BSTAR,MEAN_MOTION_DOT,MEAN_MOTION_DDOT
TYVAK-182A,2021-034D,2026-05-13T02:45:59.918976,15.05819861,.00072855,97.5744,192.6464,92.6676,267.5385,0,U,48271,999,27455,.27461842E-3,.3924E-4,0
CSS (TIANHE),2021-035A,2026-05-13T03:48:15.168096,15.62165519,.00041481,41.4670,175.0334,295.5863,64.4547,0,U,48274,999,28769,.12827239E-3,.11273E-3,0
TYVAK-0130,2021-041BF,2026-05-12T10:43:39.580896,15.27062829,.0011109,52.9934,191.9991,61.0219,299.1890,0,U,48606,999,27492,.18207E-3,.4556E-4,0
HAIYANG-2D,2021-043A,2026-05-13T07:14:36.581856,13.83372414,.00113864,66.0004,31.5527,273.1489,86.8277,0,U,48621,999,25172,-.1199596E-3,-.213E-5,0
TYVAK-0173,2021-059P,2026-05-13T05:14:46.804992,14.81767455,.00103943,96.0084,218.2692,139.9304,220.2682,0,U,48892,999,26306,.14128257E-3,.1084E-4,0
MANDRAKE 2 ABLE,2021-059AE,2026-05-13T05:08:39.902208,15.53558281,.00062793,97.7048,320.3721,116.6444,243.5452,0,U,48907,999,27169,.20408816E-3,.12891E-3,0
MANDRAKE 2 BAKER,2021-059AF,2026-05-13T01:14:11.169024,15.57763690,.00048623,97.7023,322.8343,114.8941,245.2819,0,U,48908,999,27182,.22051095E-3,.16276E-3,0
PACE-1,2021-059AG,2026-05-13T01:29:57.621408,15.74455319,.00028977,97.6802,327.4004,99.6102,260.5489,0,U,48909,999,27226,.32128209E-3,.46556E-3,0
YAM-3,2021-059AN,2026-05-13T05:29:06.830592,15.47761926,.00065976,97.6994,317.9236,117.3003,242.8919,0,U,48915,999,27158,.14055681E-3,.7189E-4,0
FARADAY_PHOENIX,2021-059AX,2026-05-13T01:30:32.723136,15.70633315,.0005143,97.6855,327.4197,109.7187,250.4630,0,U,48924,999,27213,.51136752E-3,.6327E-3,0
DEMO8 (TENZING),2021-059CA,2026-05-13T00:36:15.041376,15.53634486,.00082598,97.7044,323.8051,112.3428,247.8701,0,U,48951,999,27184,.19725896E-3,.12497E-3,0
NAPA-2,2021-059CN,2026-05-13T07:09:45.408672,15.85036522,.00021682,97.6777,327.8959,125.8836,234.2635,0,U,48963,999,27226,.44449661E-3,.104776E-2,0
FENGYUN 3E,2021-062A,2026-05-13T07:41:32.868384,14.19901832,.0001763,98.7505,137.1174,146.9508,213.1779,0,U,49008,999,25163,.81963687E-4,.13E-5,0
ISS (NAUKA),2021-066A,2026-05-13T03:59:43.960128,15.49201863,.00075149,51.6312,113.4597,53.2822,306.8856,0,U,49044,999,56650,.97914582E-4,.4986E-4,0
STARLINK-3100,2021-082Q,2026-05-13T06:11:57.568416,14.98351724,.00038516,69.9987,131.6456,265.3214,94.7505,0,U,49144,999,25565,.19429846E-3,.2227E-4,0
CUTE,2021-088D,2026-05-12T18:43:00.759360,15.78491621,.00015958,97.4190,229.0724,275.6751,84.4333,0,U,49263,999,25694,.76236117E-3,.13339E-2,0
2021-091B,2021-091B,2026-05-13T06:22:34.352832,15.18367214,.00138342,97.4484,321.3769,156.0192,204.1689,0,U,49316,999,25368,.72217656E-4,.1419E-4,0
SDGSAT 1,2021-100A,2026-05-13T06:29:21.087744,15.19741806,.00096049,97.2667,181.5132,61.6175,298.6028,0,U,49387,999,25061,.80042573E-4,.1647E-4,0
TEIKYOSAT-4 (OORURI),2021-102B,2026-05-13T01:15:25.161120,15.09378186,.00135095,97.3698,163.9005,58.7668,301.4883,0,U,49396,999,24742,.69714527E-4,.1055E-4,0
Z-SAT,2021-102E,2026-05-13T06:20:20.786208,15.17989983,.00170856,97.3360,169.6497,15.6589,344.5170,0,U,49399,999,24814,.10895766E-3,.2156E-4,0
HIBARI,2021-102F,2026-05-13T02:41:26.736864,15.31004630,.00103837,97.3272,179.4297,332.6865,27.3829,0,U,49400,999,24882,.20611375E-3,.6106E-4,0
KOSEN-1,2021-102H,2026-05-13T01:45:24.664896,15.26337691,.0012753,97.3220,175.9206,338.8390,21.2320,0,U,49402,999,24866,.16820987E-3,.4306E-4,0
GLOBAL-14,2021-106A,2026-05-13T00:37:50.812320,15.48902703,.00142913,42.0031,139.7545,143.9940,216.1869,0,U,49469,999,25267,.27527434E-3,.15005E-3,0
GAOFEN-3 02,2021-109A,2026-05-13T06:58:19.987104,14.42212847,.00040026,98.4103,141.8823,91.4966,268.6682,0,U,49495,999,23528,.6217862E-4,.161E-5,0
GLOBAL-12,2021-115BA,2026-05-13T05:55:31.016064,15.51685073,.00022265,53.1951,212.2742,329.0527,31.0352,0,U,49772,999,25047,.28975532E-3,.1711E-3,0
GLOBAL-13,2021-115BB,2026-05-12T08:31:13.270080,15.44769452,.0003178,53.1970,224.7426,25.5296,334.5868,0,U,49773,999,25022,.23386E-3,.10705E-3,0
GLOBAL-17,2021-120A,2026-05-13T01:34:48.035136,15.50495721,.00130395,41.9953,258.2773,1.1815,358.9057,0,U,49949,999,24944,.32348178E-3,.18725E-3,0
GLOBAL-16,2021-120B,2026-05-12T18:37:40.504800,15.48579377,.00113364,41.9958,263.0995,348.8418,11.2172,0,U,49950,999,24935,.31060725E-3,.16758E-3,0
XW-3 (CAS-9),2021-131B,2026-05-13T06:36:13.124160,14.41322291,.00038813,98.4955,225.8572,185.6183,174.4963,0,U,50466,999,23008,.51118371E-4,.121E-5,0
