TYVAK-182A              
1 48271U 21034D   26133.11527684  .00003924  00000+0  27462-3 0  9992
2 48271  97.5744 192.6464 0007285  92.6676 267.5385 15.05819861274553
CSS (TIANHE)            
1 48274U 21035A   26133.15850889  .00011273  00000+0  12827-3 0  9991
2 48274  41.4670 175.0334 0004148 295.5863  64.4547 15.62165519287690
TYVAK-0130              
1 48606U 21041BF  26132.44698589  .00004556  00000+0  18207-3 0  9999
2 48606  52.9934 191.9991 0011109  61.0219 299.1890 15.27062829274922
HAIYANG-2D              
1 48621U 21043A   26133.30181229 -.00000213  00000+0 -11996-3 0  9998
2 48621  66.0004  31.5527 0011386 273.1489  86.8277 13.83372414251726
TYVAK-0173              
1 48892U 21059P   26133.21859728  .00001084  00000+0  14128-3 0  9996
2 48892  96.0084 218.2692 0010394 139.9304 220.2682 14.81767455263063
MANDRAKE 2 ABLE         
1 48907U 21059AE  26133.21435072  .00012891  00000+0  20409-3 0  9992
2 48907  97.7048 320.3721 0006279 116.6444 243.5452 15.53558281271696
MANDRAKE 2 BAKER        
1 48908U 21059AF  26133.05151816  .00016276  00000+0  22051-3 0  9992
2 48908  97.7023 322.8343 0004862 114.8941 245.2819 15.57763690271822
PACE-1                  
1 48909U 21059AG  26133.06247247  .00046556  00000+0  32128-3 0  9998
2 48909  97.6802 327.4004 0002897  99.6102 260.5489 15.74455319272264
YAM-3                   
1 48915U 21059AN  26133.22855128  .00007189  00000+0  14056-3 0  9995
2 48915  97.6994 317.9236 0006597 117.3003 242.8919 15.47761926271582
FARADAY_PHOENIX         
1 48924U 21059AX  26133.06287874  .00063270  00000+0  51137-3 0  9998
2 48924  97.6855 327.4197 0005143 109.7187 250.4630 15.70633315272137
DEMO8 (TENZING)         
1 48951U 21059CA  26133.02517409  .00012497  00000+0  19726-3 0  9997
2 48951  97.7044 323.8051 0008259 112.3428 247.8701 15.53634486271843
NAPA-2                  
1 48963U 21059CN  26133.29844223  .00104776  00000+0  44450-3 0  9990
2 48963  97.6777 327.8959 0002168 125.8836 234.2635 15.85036522272269
FENGYUN 3E              
1 49008U 21062A   26133.32051931  .00000130  00000+0  81964-4 0  9996
2 49008  98.7505 137.1174 0001763 146.9508 213.1779 14.19901832251636
ISS (NAUKA)             
1 49044U 21066A   26133.16648102  .00004986  00000+0  97915-4 0  9990
2 49044  51.6312 113.4597 0007514  53.2822 306.8856 15.49201863566507
STARLINK-3100           
1 49144U 21082Q   26133.25830519  .00002227  00000+0  19430-3 0  9995
2 49144  69.9987 131.6456 0003851 265.3214  94.7505 14.98351724255655
CUTE                    
1 49263U 21088D   26132.77986990  .00133390  00000+0  76236-3 0  9997
2 49263  97.4190 229.0724 0001595 275.6751  84.4333 15.78491621256940
2021-091B               
1 49316U 21091B   26133.26567538  .00001419  00000+0  72218-4 0  9991
2 49316  97.4484 321.3769 0013834 156.0192 204.1689 15.18367214253687
SDGSAT 1                
1 49387U 21100A   26133.27038296  .00001647  00000+0  80043-4 0  9993
2 49387  97.2667 181.5132 0009604  61.6175 298.6028 15.19741806250617
TEIKYOSAT-4 (OORURI)    
1 49396U 21102B   26133.05237455  .00001055  00000+0  69715-4 0  9995
2 49396  97.3698 163.9005 0013509  58.7668 301.4883 15.09378186247421
Z-SAT                   
1 49399U 21102E   26133.26412947  .00002156  00000+0  10896-3 0  9990
2 49399  97.3360 169.6497 0017085  15.6589 344.5170 15.17989983248144
HIBARI                  
1 49400U 21102F   26133.11211501  .00006106  00000+0  20611-3 0  9995
2 49400  97.3272 179.4297 0010383 332.6865  27.3829 15.31004630248824
KOSEN-1                 
1 49402U 21102H   26133.07320214  .00004306  00000+0  16821-3 0  9992
2 49402  97.3220 175.9206 0012753 338.8390  21.2320 15.26337691248665
GLOBAL-14               
1 49469U 21106A   26133.02628255  .00015005  00000+0  27527-3 0  9993
2 49469  42.0031 139.7545 0014291 143.9940 216.1869 15.48902703252679
GAOFEN-3 02             
1 49495U 21109A   26133.29050911  .00000161  00000+0  62179-4 0  9992
2 49495  98.4103 141.8823 0004002  91.4966 268.6682 14.42212847235289
GLOBAL-12               
1 49772U 21115BA  26133.24688676  .00017110  00000+0  28976-3 0  9995
2 49772  53.1951 212.2742 0002226 329.0527  31.0352 15.51685073250478
GLOBAL-13               
1 49773U 21115BB  26132.35501470  .00010705  00000+0  23386-3 0  9996
2 49773  53.1970 224.7426 0003178  25.5296 334.5868 15.44769452250227
GLOBAL-17               
1 49949U 21120A   26133.06583374  .00018725  00000+0  32348-3 0  9997
2 49949  41.9953 258.2773 0013039   1.1815 358.9057 15.50495721249443
GLOBAL-16               
1 49950U 21120B   26132.77616325  .00016758  00000+0  31061-3 0  9994
2 49950  41.9958 263.0995 0011336 348.8418  11.2172 15.48579377249352
XW-3 (CAS-9)            
1 50466U 21131B   26133.27515190  .00000121  00000+0  51118-4 0  9997
2 50466  98.4955 225.8572 0003881 185.6183 174.4963 14.41322291230082
